     3.00           N                   E                   RINEX VERSION / TYPE
BRD_USR             ESA                 20190113 151640  UTCPGM / RUN BY / DATE
 GAL   3.9000E+01  9.3750E-02 -1.2207E-03  0.0000E+00       IONOSPHERIC CORR
GAUT  2.7939677238E-09-1.776356839E-15      0 2036 GSTB   0 TIME SYSTEM CORR
GPGA -4.9476511776E-10-6.217248938E-15  86400 2036 GSTB   0 TIME SYSTEM CORR
                                                            END OF HEADER
E27 2019 01 13 13 10 00 5.505566368811E-04-7.645439836779E-12 0.000000000000E+00
     7.900000000000E+01 1.618750000000E+01 2.805474002110E-09-1.336522164953E+00
     7.860362529755E-07 1.819249009714E-04 5.589798092842E-06 5.440624584198E+03
     4.740000000000E+04-1.862645149231E-09-3.072669968832E+00 1.117587089539E-08
     9.896506217779E-01 2.352500000000E+02-8.094857547195E-01-5.568089076117E-09
    -2.385813664430E-10 2.580000000000E+02 2.036000000000E+03 0.000000000000E+00
     3.120000000000E+00 0.000000000000E+00-2.561137080193E-09 0.000000000000E+00
     4.810000000000E+04 0.000000000000E+00 0.000000000000E+00 0.000000000000E+00
E30 2019 01 13 13 10 00 5.191822070628E-03-3.053912678297E-11 0.000000000000E+00
     7.900000000000E+01 1.862500000000E+01 2.861904924113E-09-1.981725319294E+00
     8.810311555862E-07 3.140054177493E-04 5.180016160011E-06 5.440610397339E+03
     4.740000000000E+04 1.862645149231E-08-3.066673302315E+00-3.539025783539E-08
     9.876671140597E-01 2.438750000000E+02 6.015666750381E-01-5.572374968927E-09
    -2.617966191657E-10 2.580000000000E+02 2.036000000000E+03 0.000000000000E+00
     3.120000000000E+00 0.000000000000E+00-2.793967723846E-09 0.000000000000E+00
     4.810000000000E+04 0.000000000000E+00 0.000000000000E+00 0.000000000000E+00
E31 2019 01 13 13 10 00 9.336908115074E-04-9.634959496907E-12 0.000000000000E+00
     7.900000000000E+01 1.640625000000E+01 2.846904299277E-09-2.972828229588E+00
     7.618218660355E-07 2.205636119470E-04 5.792826414108E-06 5.440621469498E+03
     4.740000000000E+04-2.421438694000E-08-3.072717544391E+00-4.842877388000E-08
     9.896540786533E-01 2.326562500000E+02-1.529335519740E+00-5.556660028623E-09
    -3.217991185107E-10 2.580000000000E+02 2.036000000000E+03 0.000000000000E+00
     3.120000000000E+00 0.000000000000E+00-4.656612873077E-10 0.000000000000E+00
     4.810000000000E+04 0.000000000000E+00 0.000000000000E+00 0.000000000000E+00
E36 2019 01 13 13 10 00 7.601451361552E-04-4.504840944719E-12 0.000000000000E+00
     7.900000000000E+01 1.731250000000E+01 2.828332097099E-09-3.816073538552E-01
     7.096678018570E-07 3.349414328113E-04 7.087364792824E-06 5.440600370407E+03
     4.740000000000E+04 4.284083843231E-08-9.900922430989E-01-1.303851604462E-08
     9.851952286958E-01 1.983437500000E+02-1.517967669035E+00-5.592018644308E-09
     3.782300405137E-10 2.580000000000E+02 2.036000000000E+03 0.000000000000E+00
     3.120000000000E+00 5.600000000000E+01 6.984919309616E-10 0.000000000000E+00
     4.810000000000E+04 0.000000000000E+00 0.000000000000E+00 0.000000000000E+00
E02 2019 01 13 12 30 00 4.315818659961E-05 1.506350599811E-12 0.000000000000E+00
     7.500000000000E+01 2.275000000000E+01 2.917978688382E-09-7.513011505257E-01
     9.667128324509E-07 2.572191879153E-04 5.217269062996E-06 5.440612495422E+03
     4.500000000000E+04 5.587935447693E-08-3.070095190588E+00 1.024454832077E-07
     9.901235115099E-01 2.436250000000E+02-1.405957754641E-01-5.650592512716E-09
    -2.975123925853E-10 2.580000000000E+02 2.036000000000E+03 0.000000000000E+00
     3.120000000000E+00 0.000000000000E+00-5.820766091347E-09 0.000000000000E+00
     4.820000000000E+04 0.000000000000E+00 0.000000000000E+00 0.000000000000E+00
E02 2019 01 13 12 30 00 4.315696423873E-05 1.506350599811E-12 0.000000000000E+00
     7.500000000000E+01 2.275000000000E+01 2.917978688382E-09-7.513011505257E-01
     9.667128324509E-07 2.572191879153E-04 5.217269062996E-06 5.440612495422E+03
     4.500000000000E+04 5.587935447693E-08-3.070095190588E+00 1.024454832077E-07
     9.901235115099E-01 2.436250000000E+02-1.405957754641E-01-5.650592512716E-09
    -2.975123925853E-10 5.210000000000E+02 2.036000000000E+03 0.000000000000E+00
     3.120000000000E+00 0.000000000000E+00-5.820766091347E-09-7.217749953270E-09
     4.820500000000E+04 0.000000000000E+00 0.000000000000E+00 0.000000000000E+00
E15 2019 01 13 13 10 00 9.230786818080E-04-1.051603248925E-12 0.000000000000E+00
     7.900000000000E+01 1.490625000000E+01 2.763686547209E-09-1.878511915219E+00
     8.177012205124E-07 3.888361388817E-04 6.252899765968E-06 5.440598285675E+03
     4.740000000000E+04-1.303851604462E-08-9.900942604630E-01-2.048909664154E-08
     9.851493954723E-01 2.175625000000E+02-1.593907543184E+00-5.538444984179E-09
     3.385855320179E-10 5.210000000000E+02 2.036000000000E+03 0.000000000000E+00
     3.120000000000E+00 4.550000000000E+02 1.396983861923E-09 1.164153218269E-09
     4.823500000000E+04 0.000000000000E+00 0.000000000000E+00 0.000000000000E+00
E15 2019 01 13 13 10 00 9.230785071850E-04-1.051603248925E-12 0.000000000000E+00
     7.900000000000E+01 1.490625000000E+01 2.763686547209E-09-1.878511915219E+00
     8.177012205124E-07 3.888361388817E-04 6.252899765968E-06 5.440598285675E+03
     4.740000000000E+04-1.303851604462E-08-9.900942604630E-01-2.048909664154E-08
     9.851493954723E-01 2.175625000000E+02-1.593907543184E+00-5.538444984179E-09
     3.385855320179E-10 2.580000000000E+02 2.036000000000E+03 0.000000000000E+00
     3.120000000000E+00 5.600000000000E+01 1.396983861923E-09 0.000000000000E+00
     4.825000000000E+04 0.000000000000E+00 0.000000000000E+00 0.000000000000E+00
E36 2019 01 13 13 10 00 7.601451361552E-04-4.504840944719E-12 0.000000000000E+00
     7.900000000000E+01 1.731250000000E+01 2.828332097099E-09-3.816073538552E-01
     7.096678018570E-07 3.349414328113E-04 7.087364792824E-06 5.440600370407E+03
     4.740000000000E+04 4.284083843231E-08-9.900922430989E-01-1.303851604462E-08
     9.851952286958E-01 1.983437500000E+02-1.517967669035E+00-5.592018644308E-09
     3.782300405137E-10 2.580000000000E+02 2.036000000000E+03 0.000000000000E+00
     3.120000000000E+00 5.600000000000E+01 6.984919309616E-10 0.000000000000E+00
     4.830000000000E+04 0.000000000000E+00 0.000000000000E+00 0.000000000000E+00
E27 2019 01 13 13 10 00 5.505564622581E-04-7.617018127348E-12 0.000000000000E+00
     7.900000000000E+01 1.618750000000E+01 2.805474002110E-09-1.336522164953E+00
     7.860362529755E-07 1.819249009714E-04 5.589798092842E-06 5.440624584198E+03
     4.740000000000E+04-1.862645149231E-09-3.072669968832E+00 1.117587089539E-08
     9.896506217779E-01 2.352500000000E+02-8.094857547195E-01-5.568089076117E-09
    -2.385813664430E-10 5.210000000000E+02 2.036000000000E+03 0.000000000000E+00
     3.120000000000E+00 0.000000000000E+00-2.561137080193E-09-3.026798367500E-09
     4.832500000000E+04 0.000000000000E+00 0.000000000000E+00 0.000000000000E+00
E36 2019 01 13 13 10 00 7.601455436088E-04-4.490630090004E-12 0.000000000000E+00
     7.900000000000E+01 1.731250000000E+01 2.828332097099E-09-3.816073538552E-01
     7.096678018570E-07 3.349414328113E-04 7.087364792824E-06 5.440600370407E+03
     4.740000000000E+04 4.284083843231E-08-9.900922430989E-01-1.303851604462E-08
     9.851952286958E-01 1.983437500000E+02-1.517967669035E+00-5.592018644308E-09
     3.782300405137E-10 5.210000000000E+02 2.036000000000E+03 0.000000000000E+00
     3.120000000000E+00 4.550000000000E+02 6.984919309616E-10 9.313225746155E-10
     4.832500000000E+04 0.000000000000E+00 0.000000000000E+00 0.000000000000E+00
E02 2019 01 13 12 30 00 4.315818659961E-05 1.506350599811E-12 0.000000000000E+00
     7.500000000000E+01 2.275000000000E+01 2.917978688382E-09-7.513011505257E-01
     9.667128324509E-07 2.572191879153E-04 5.217269062996E-06 5.440612495422E+03
     4.500000000000E+04 5.587935447693E-08-3.070095190588E+00 1.024454832077E-07
     9.901235115099E-01 2.436250000000E+02-1.405957754641E-01-5.650592512716E-09
    -2.975123925853E-10 2.580000000000E+02 2.036000000000E+03 0.000000000000E+00
     3.120000000000E+00 0.000000000000E+00-5.820766091347E-09 0.000000000000E+00
     4.840000000000E+04 0.000000000000E+00 0.000000000000E+00 0.000000000000E+00
E27 2019 01 13 13 10 00 5.505566368811E-04-7.645439836779E-12 0.000000000000E+00
     7.900000000000E+01 1.618750000000E+01 2.805474002110E-09-1.336522164953E+00
     7.860362529755E-07 1.819249009714E-04 5.589798092842E-06 5.440624584198E+03
     4.740000000000E+04-1.862645149231E-09-3.072669968832E+00 1.117587089539E-08
     9.896506217779E-01 2.352500000000E+02-8.094857547195E-01-5.568089076117E-09
    -2.385813664430E-10 2.580000000000E+02 2.036000000000E+03 0.000000000000E+00
     3.120000000000E+00 0.000000000000E+00-2.561137080193E-09 0.000000000000E+00
     4.840000000000E+04 0.000000000000E+00 0.000000000000E+00 0.000000000000E+00
E02 2019 01 13 12 30 00 4.315696423873E-05 1.506350599811E-12 0.000000000000E+00
     7.500000000000E+01 2.275000000000E+01 2.917978688382E-09-7.513011505257E-01
     9.667128324509E-07 2.572191879153E-04 5.217269062996E-06 5.440612495422E+03
     4.500000000000E+04 5.587935447693E-08-3.070095190588E+00 1.024454832077E-07
     9.901235115099E-01 2.436250000000E+02-1.405957754641E-01-5.650592512716E-09
    -2.975123925853E-10 5.210000000000E+02 2.036000000000E+03 0.000000000000E+00
     3.120000000000E+00 0.000000000000E+00-5.820766091347E-09-7.217749953270E-09
     4.841500000000E+04 0.000000000000E+00 0.000000000000E+00 0.000000000000E+00
